[{"OBJECT_NAME":"STARLINK-34659","OBJECT_ID":"2025-157K","EPOCH":"2026-03-09T22:36:03.121056","MEAN_MOTION":15.30243017,"ECCENTRICITY":0.00020942,"INCLINATION":53.1591,"RA_OF_ASC_NODE":344.4129,"ARG_OF_PERICENTER":162.6927,"MEAN_ANOMALY":197.4145,"EPHEMERIS_TYPE":0,"CLASSIFICATION_TYPE":"U","NORAD_CAT_ID":64913,"ELEMENT_SET_NO":999,"REV_AT_EPOCH":3611,"BSTAR":0.0023073247,"MEAN_MOTION_DOT":0.00068704,"MEAN_MOTION_DDOT":0},{"OBJECT_NAME":"CZ-6A DEB","OBJECT_ID":"2024-140JQ","EPOCH":"2026-03-09T16:05:49.477056","MEAN_MOTION":15.15394204,"ECCENTRICITY":0.00800164,"INCLINATION":89.0638,"RA_OF_ASC_NODE":284.0631,"ARG_OF_PERICENTER":105.771,"MEAN_ANOMALY":255.2376,"EPHEMERIS_TYPE":0,"CLASSIFICATION_TYPE":"U","NORAD_CAT_ID":60861,"ELEMENT_SET_NO":999,"REV_AT_EPOCH":8511,"BSTAR":0.0025246282,"MEAN_MOTION_DOT":0.00051962,"MEAN_MOTION_DDOT":0}]
